[{"OBJECT_NAME":"STARLINK-33952","OBJECT_ID":"2025-102AA","EPOCH":"2026-03-09T13:16:46.572384","MEAN_MOTION":14.9834229,"ECCENTRICITY":0.0003793,"INCLINATION":70.0006,"RA_OF_ASC_NODE":114.7215,"ARG_OF_PERICENTER":269.3018,"MEAN_ANOMALY":90.7707,"EPHEMERIS_TYPE":0,"CLASSIFICATION_TYPE":"U","NORAD_CAT_ID":64046,"ELEMENT_SET_NO":999,"REV_AT_EPOCH":4593,"BSTAR":0.00039128,"MEAN_MOTION_DOT":4.58e-5,"MEAN_MOTION_DDOT":0},{"OBJECT_NAME":"CZ-2C DEB","OBJECT_ID":"2013-035D","EPOCH":"2026-03-09T23:34:49.287360","MEAN_MOTION":14.88810695,"ECCENTRICITY":0.00555667,"INCLINATION":97.8149,"RA_OF_ASC_NODE":69.2801,"ARG_OF_PERICENTER":125.3803,"MEAN_ANOMALY":235.2624,"EPHEMERIS_TYPE":0,"CLASSIFICATION_TYPE":"U","NORAD_CAT_ID":39205,"ELEMENT_SET_NO":999,"REV_AT_EPOCH":67351,"BSTAR":0.0012724881,"MEAN_MOTION_DOT":0.0001222,"MEAN_MOTION_DDOT":0}]
